{"type": "FeatureCollection", "features": [ {"type": "Feature", "properties": {"norad_id": 40315, "name": "COSMOS 2501 (702K)", "group": "gnss", "lat": 56.13671084379955, "lon": -31.402579858040387, "alt_km": 19125.28573969851, "timestamp": "2025-12-27T05:29:39.445412+00:00", "meta": {"OBJECT_NAME": "COSMOS 2501 (702K)", "OBJECT_ID": "2014-075A", "EPOCH": "2025-12-26T03:27:24.522048", "MEAN_MOTION": 2.13101463, "ECCENTRICITY": 0.0020084, "INCLINATION": 63.6159, "RA_OF_ASC_NODE": 196.3605, "ARG_OF_PERICENTER": 203.9081, "MEAN_ANOMALY": 156.0501, "EPHEMERIS_TYPE": 0, "CLASSIFICATION_TYPE": "U", "NORAD_CAT_ID": 40315, "ELEMENT_SET_NO": 999, "REV_AT_EPOCH": 8616, "BSTAR": 0, "MEAN_MOTION_DOT": 1.12e-06, "MEAN_MOTION_DDOT": 0}, "tle": {"line1": "1 40315U 14075A   25360.14403382  .00000112  00000+0  00000+0 0  9993", "line2": "2 40315  63.6159 196.3605 0020084 203.9081 156.0501  2.13101463 86162"}}, "geometry": {"type": "Point", "coordinates": [-31.402579858040387, 56.13671084379955]}}, {"type": "Feature", "properties": {"norad_id": 40534, "name": "GPS BIIF-9  (PRN 26)", "group": "gnss", "lat": 36.04990079729071, "lon": -1.7206030177009486, "alt_km": 20193.824722876438, "timestamp": "2025-12-27T05:29:39.445424+00:00", "meta": {"OBJECT_NAME": "GPS BIIF-9  (PRN 26)", "OBJECT_ID": "2015-013A", "EPOCH": "2025-12-26T13:11:10.214592", "MEAN_MOTION": 2.00561683, "ECCENTRICITY": 0.010755, "INCLINATION": 53.1959, "RA_OF_ASC_NODE": 211.3182, "ARG_OF_PERICENTER": 38.8079, "MEAN_ANOMALY": 322.028, "EPHEMERIS_TYPE": 0, "CLASSIFICATION_TYPE": "U", "NORAD_CAT_ID": 40534, "ELEMENT_SET_NO": 999, "REV_AT_EPOCH": 7836, "BSTAR": 0, "MEAN_MOTION_DOT": 8.8e-07, "MEAN_MOTION_DDOT": 0}, "tle": {"line1": "1 40534U 15013A   25360.54942378  .00000088  00000+0  00000+0 0  9998", "line2": "2 40534  53.1959 211.3182 0107550  38.8079 322.0280  2.00561683 78363"}}, "geometry": {"type": "Point", "coordinates": [-1.7206030177009486, 36.04990079729071]}}, {"type": "Feature", "properties": {"norad_id": 40544, "name": "GSAT0203 (GALILEO 7)", "group": "gnss", "lat": -52.05052076954352, "lon": -70.67161837235189, "alt_km": 23209.152425651646, "timestamp": "2025-12-27T05:29:39.445437+00:00", "meta": {"OBJECT_NAME": "GSAT0203 (GALILEO 7)", "OBJECT_ID": "2015-017A", "EPOCH": "2025-12-24T23:56:01.378752", "MEAN_MOTION": 1.70475851, "ECCENTRICITY": 0.000645, "INCLINATION": 56.8433, "RA_OF_ASC_NODE": 346.3459, "ARG_OF_PERICENTER": 275.4973, "MEAN_ANOMALY": 84.4372, "EPHEMERIS_TYPE": 0, "CLASSIFICATION_TYPE": "U", "NORAD_CAT_ID": 40544, "ELEMENT_SET_NO": 999, "REV_AT_EPOCH": 6623, "BSTAR": 0, "MEAN_MOTION_DOT": -6.1e-07, "MEAN_MOTION_DDOT": 0}, "tle": {"line1": "1 40544U 15017A   25358.99723818 -.00000061  00000+0  00000+0 0  9997", "line2": "2 40544  56.8433 346.3459 0006450 275.4973  84.4372  1.70475851 66237"}}, "geometry": {"type": "Point", "coordinates": [-70.67161837235189, -52.05052076954352]}}, {"type": "Feature", "properties": {"norad_id": 40545, "name": "GSAT0204 (GALILEO 8)", "group": "gnss", "lat": 37.92837092963835, "lon": 135.68061702890864, "alt_km": 23230.03130765442, "timestamp": "2025-12-27T05:29:39.445449+00:00", "meta": {"OBJECT_NAME": "GSAT0204 (GALILEO 8)", "OBJECT_ID": "2015-017B", "EPOCH": "2025-12-20T13:26:28.826304", "MEAN_MOTION": 1.70475697, "ECCENTRICITY": 0.0006133, "INCLINATION": 56.8522, "RA_OF_ASC_NODE": 346.4847, "ARG_OF_PERICENTER": 266.5447, "MEAN_ANOMALY": 93.3948, "EPHEMERIS_TYPE": 0, "CLASSIFICATION_TYPE": "U", "NORAD_CAT_ID": 40545, "ELEMENT_SET_NO": 999, "REV_AT_EPOCH": 2920, "BSTAR": 0, "MEAN_MOTION_DOT": -7e-07, "MEAN_MOTION_DDOT": 0}, "tle": {"line1": "1 40545U 15017B   25354.56005586 -.00000070  00000+0  00000+0 0  9992", "line2": "2 40545  56.8522 346.4847 0006133 266.5447  93.3948  1.70475697 29206"}}, "geometry": {"type": "Point", "coordinates": [135.68061702890864, 37.92837092963835]}}, {"type": "Feature", "properties": {"norad_id": 40549, "name": "BEIDOU-3S IGSO-1S (C31)", "group": "gnss", "lat": -18.050685369353378, "lon": -78.61447354692265, "alt_km": 35904.87180211811, "timestamp": "2025-12-27T05:29:39.445463+00:00", "meta": {"OBJECT_NAME": "BEIDOU-3S IGSO-1S (C31)", "OBJECT_ID": "2015-019A", "EPOCH": "2025-12-26T19:27:32.429664", "MEAN_MOTION": 1.00290016, "ECCENTRICITY": 0.00365106, "INCLINATION": 49.5251, "RA_OF_ASC_NODE": 297.5457, "ARG_OF_PERICENTER": 194.1839, "MEAN_ANOMALY": 350.566, "EPHEMERIS_TYPE": 0, "CLASSIFICATION_TYPE": "U", "NORAD_CAT_ID": 40549, "ELEMENT_SET_NO": 999, "REV_AT_EPOCH": 3934, "BSTAR": 0, "MEAN_MOTION_DOT": -1.81e-06, "MEAN_MOTION_DDOT": 0}, "tle": {"line1": "1 40549U 15019A   25360.81079201 -.00000181  00000+0  00000+0 0  9991", "line2": "2 40549  49.5251 297.5457 0036510 194.1839 350.5660  1.00290016 39342"}}, "geometry": {"type": "Point", "coordinates": [-78.61447354692265, -18.050685369353378]}}, {"type": "Feature", "properties": {"norad_id": 40730, "name": "GPS BIIF-10 (PRN 08)", "group": "gnss", "lat": 11.733204959252772, "lon": -77.19084337292729, "alt_km": 19890.82140826365, "timestamp": "2025-12-27T05:29:39.445475+00:00", "meta": {"OBJECT_NAME": "GPS BIIF-10 (PRN 08)", "OBJECT_ID": "2015-033A", "EPOCH": "2025-12-26T05:05:23.462304", "MEAN_MOTION": 2.00564909, "ECCENTRICITY": 0.0111756, "INCLINATION": 54.1189, "RA_OF_ASC_NODE": 274.2184, "ARG_OF_PERICENTER": 27.1685, "MEAN_ANOMALY": 333.4602, "EPHEMERIS_TYPE": 0, "CLASSIFICATION_TYPE": "U", "NORAD_CAT_ID": 40730, "ELEMENT_SET_NO": 999, "REV_AT_EPOCH": 7652, "BSTAR": 0, "MEAN_MOTION_DOT": -2e-07, "MEAN_MOTION_DDOT": 0}, "tle": {"line1": "1 40730U 15033A   25360.21207711 -.00000020  00000+0  00000+0 0  9994", "line2": "2 40730  54.1189 274.2184 0111756  27.1685 333.4602  2.00564909 76528"}}, "geometry": {"type": "Point", "coordinates": [-77.19084337292729, 11.733204959252772]}}, {"type": "Feature", "properties": {"norad_id": 40748, "name": "BEIDOU-3S M2S (C58)", "group": "gnss", "lat": 1.1631794458512974, "lon": 127.13719887618699, "alt_km": 21529.91204406014, "timestamp": "2025-12-27T05:29:39.445488+00:00", "meta": {"OBJECT_NAME": "BEIDOU-3S M2S (C58)", "OBJECT_ID": "2015-037A", "EPOCH": "2025-12-24T19:32:44.901312", "MEAN_MOTION": 1.86229543, "ECCENTRICITY": 0.00118109, "INCLINATION": 55.028, "RA_OF_ASC_NODE": 308.0499, "ARG_OF_PERICENTER": 271.2412, "MEAN_ANOMALY": 88.6304, "EPHEMERIS_TYPE": 0, "CLASSIFICATION_TYPE": "U", "NORAD_CAT_ID": 40748, "ELEMENT_SET_NO": 999, "REV_AT_EPOCH": 7087, "BSTAR": 0, "MEAN_MOTION_DOT": -5.3e-07, "MEAN_MOTION_DDOT": 0}, "tle": {"line1": "1 40748U 15037A   25358.81440858 -.00000053  00000+0  00000+0 0  9997", "line2": "2 40748  55.0280 308.0499 0011810 271.2412  88.6304  1.86229543 70879"}}, "geometry": {"type": "Point", "coordinates": [127.13719887618699, 1.1631794458512974]}}, {"type": "Feature", "properties": {"norad_id": 40749, "name": "BEIDOU-3S M1S (C57)", "group": "gnss", "lat": 20.873042945389745, "lon": -36.59283385459959, "alt_km": 21513.705682736927, "timestamp": "2025-12-27T05:29:39.445500+00:00", "meta": {"OBJECT_NAME": "BEIDOU-3S M1S (C57)", "OBJECT_ID": "2015-037B", "EPOCH": "2025-12-26T02:48:07.376256", "MEAN_MOTION": 1.86253839, "ECCENTRICITY": 0.0003725, "INCLINATION": 55.0231, "RA_OF_ASC_NODE": 307.9941, "ARG_OF_PERICENTER": 3.0016, "MEAN_ANOMALY": 357.0085, "EPHEMERIS_TYPE": 0, "CLASSIFICATION_TYPE": "U", "NORAD_CAT_ID": 40749, "ELEMENT_SET_NO": 999, "REV_AT_EPOCH": 7090, "BSTAR": 0, "MEAN_MOTION_DOT": -5.5e-07, "MEAN_MOTION_DDOT": 0}, "tle": {"line1": "1 40749U 15037B   25360.11675204 -.00000055  00000+0  00000+0 0  9991", "line2": "2 40749  55.0231 307.9941 0003725   3.0016 357.0085  1.86253839 70901"}}, "geometry": {"type": "Point", "coordinates": [-36.59283385459959, 20.873042945389745]}}, {"type": "Feature", "properties": {"norad_id": 40889, "name": "GSAT0205 (GALILEO 9)", "group": "gnss", "lat": -54.69450919976876, "lon": 144.84379629759079, "alt_km": 23239.43872069578, "timestamp": "2025-12-27T05:29:39.445511+00:00", "meta": {"OBJECT_NAME": "GSAT0205 (GALILEO 9)", "OBJECT_ID": "2015-045A", "EPOCH": "2025-12-23T06:16:38.782272", "MEAN_MOTION": 1.70473104, "ECCENTRICITY": 0.00062228, "INCLINATION": 55.0001, "RA_OF_ASC_NODE": 226.4673, "ARG_OF_PERICENTER": 42.5636, "MEAN_ANOMALY": 317.5856, "EPHEMERIS_TYPE": 0, "CLASSIFICATION_TYPE": "U", "NORAD_CAT_ID": 40889, "ELEMENT_SET_NO": 999, "REV_AT_EPOCH": 6401, "BSTAR": 0, "MEAN_MOTION_DOT": 7.3e-07, "MEAN_MOTION_DDOT": 0}, "tle": {"line1": "1 40889U 15045A   25357.26155998  .00000073  00000+0  00000+0 0  9999", "line2": "2 40889  55.0001 226.4673 0006222  42.5636 317.5856  1.70473104 64013"}}, "geometry": {"type": "Point", "coordinates": [144.84379629759079, -54.69450919976876]}}, {"type": "Feature", "properties": {"norad_id": 40890, "name": "GSAT0206 (GALILEO 10)", "group": "gnss", "lat": 32.07495006446414, "lon": 20.326625527432082, "alt_km": 23220.057559903395, "timestamp": "2025-12-27T05:29:39.445527+00:00", "meta": {"OBJECT_NAME": "GSAT0206 (GALILEO 10)", "OBJECT_ID": "2015-045B", "EPOCH": "2025-12-25T05:48:23.394816", "MEAN_MOTION": 1.7047315, "ECCENTRICITY": 0.0004109, "INCLINATION": 54.9985, "RA_OF_ASC_NODE": 226.4076, "ARG_OF_PERICENTER": 41.5093, "MEAN_ANOMALY": 318.6128, "EPHEMERIS_TYPE": 0, "CLASSIFICATION_TYPE": "U", "NORAD_CAT_ID": 40890, "ELEMENT_SET_NO": 999, "REV_AT_EPOCH": 6407, "BSTAR": 0, "MEAN_MOTION_DOT": 7e-07, "MEAN_MOTION_DDOT": 0}, "tle": {"line1": "1 40890U 15045B   25359.24193744  .00000070  00000+0  00000+0 0  9999", "line2": "2 40890  54.9985 226.4076 0004109  41.5093 318.6128  1.70473150 64070"}}, "geometry": {"type": "Point", "coordinates": [20.326625527432082, 32.07495006446414]}}]}